{"type": "FeatureCollection", "features": [{"type": "Feature", "properties": {"hc-key": "ro-bi", "name": "Bucharest"}, "geometry": {"type": "Polygon", "coordinates": [[[26.21073, 44.43403], [26.19585, 44.40285], [26.14811, 44.41286], [26.14068, 44.39818], [26.17205, 44.34297], [26.14512, 44.32632], [26.0969, 44.37103], [26.04154, 44.38033], [25.97608, 44.43095], [25.97553, 44.46262], [26.04182, 44.46686], [26.0413, 44.49854], [25.98909, 44.51515], [26.0375, 44.57466], [26.10456, 44.59288], [26.11326, 44.52532], [26.19095, 44.51188], [26.16698, 44.46114], [26.21073, 44.43403]]]}}, {"type": "Feature", "properties": {"hc-key": "ro-cs", "name": "Caras-Severin"}, "geometry": {"type": "Polygon", "coordinates": [[[22.03447, 44.59615], [22.00413, 44.65149], [21.85572, 44.6985], [21.75682, 44.67754], [21.656, 44.68747], [21.61939, 44.71377], [21.59575, 44.76566], [21.55833, 44.78155], [21.41174, 44.7848], [21.34295, 44.83197], [21.36884, 44.86494], [21.52238, 44.88096], [21.53947, 44.90859], [21.5165, 44.93368], [21.4086, 44.95828], [21.38434, 44.98694], [21.35317, 44.98967], [21.36342, 45.01637], [21.42208, 45.03145], [21.44276, 45.09277], [21.49441, 45.11904], [21.48428, 45.15267], [21.53186, 45.19518], [21.52993, 45.25113], [21.55387, 45.28031], [21.54194, 45.3236], [21.47991, 45.3663], [21.46974, 45.39079], [21.48563, 45.44944], [21.55478, 45.48627], [21.59207, 45.54897], [21.66867, 45.56416], [21.81077, 45.52808], [21.89295, 45.5586], [21.91741, 45.55664], [21.95604, 45.51267], [22.02735, 45.50971], [22.03689, 45.56861], [22.11608, 45.57569], [22.16661, 45.60343], [22.2644, 45.58621], [22.29808, 45.62964], [22.33474, 45.64821], [22.44559, 45.66305], [22.48362, 45.61156], [22.53771, 45.59724], [22.54247, 45.57001], [22.57567, 45.56704], [22.65302, 45.52006], [22.67854, 45.4924], [22.69847, 45.41273], [22.67548, 45.37409], [22.70706, 45.32228], [22.66926, 45.24043], [22.57291, 45.17093], [22.56592, 45.13898], [22.63479, 45.12763], [22.64091, 45.09253], [22.56624, 45.02385], [22.5337, 44.93424], [22.49214, 44.88447], [22.44213, 44.76916], [22.38778, 44.75357], [22.3542, 44.77779], [22.31142, 44.77787], [22.26275, 44.80815], [22.22181, 44.80644], [22.20587, 44.76129], [22.16548, 44.70232], [22.16896, 44.60925], [22.15032, 44.59749], [22.03447, 44.59615]]]}}, {"type": "Feature", "properties": {"hc-key": "ro-tm", "name": "Timis"}, "geometry": {"type": "Polygon", "coordinates": [[[22.44559, 45.66305], [22.33474, 45.64821], [22.29808, 45.62964], [22.2644, 45.58621], [22.16661, 45.60343], [22.11608, 45.57569], [22.03689, 45.56861], [22.02735, 45.50971], [21.95604, 45.51267], [21.91741, 45.55664], [21.89295, 45.5586], [21.81077, 45.52808], [21.66867, 45.56416], [21.59207, 45.54897], [21.55478, 45.48627], [21.48563, 45.44944], [21.46974, 45.39079], [21.47991, 45.3663], [21.54194, 45.3236], [21.55387, 45.28031], [21.52993, 45.25113], [21.53186, 45.19518], [21.48428, 45.15267], [21.40564, 45.1994], [21.29897, 45.22335], [21.25749, 45.22431], [21.20613, 45.24608], [21.13982, 45.30361], [21.09134, 45.28831], [20.98135, 45.33251], [20.86315, 45.4188], [20.8159, 45.46315], [20.76057, 45.49364], [20.79982, 45.53052], [20.75422, 45.6054], [20.77988, 45.67139], [20.78561, 45.75273], [20.76489, 45.76683], [20.7138, 45.73355], [20.65575, 45.77725], [20.62934, 45.83304], [20.57247, 45.88773], [20.48145, 45.9124], [20.3382, 45.99306], [20.30555, 46.05329], [20.24283, 46.10808], [20.28312, 46.14397], [20.44409, 46.14666], [20.46886, 46.17428], [20.54903, 46.15631], [20.60735, 46.12975], [20.68359, 46.14497], [20.70455, 46.16867], [20.86091, 46.09557], [20.91989, 46.0372], [21.08372, 46.01049], [21.09658, 45.98008], [21.14235, 45.97697], [21.15461, 46.00989], [21.19565, 46.01869], [21.20702, 45.99368], [21.26469, 45.96857], [21.33087, 45.98772], [21.36819, 45.97312], [21.41755, 46.00358], [21.43109, 46.03409], [21.49209, 46.03645], [21.53552, 45.99529], [21.5839, 45.99211], [21.63964, 45.94906], [21.63375, 45.92867], [21.67039, 45.90176], [21.7365, 45.94992], [21.82006, 45.90622], [21.82211, 45.94043], [21.88893, 45.93553], [21.91215, 45.97739], [21.95539, 45.98236], [22.00121, 45.95879], [22.05853, 45.95276], [22.13169, 45.90534], [22.22874, 45.89299], [22.32228, 45.92185], [22.35484, 45.94998], [22.38927, 45.92458], [22.4127, 45.86277], [22.44965, 45.83745], [22.50273, 45.77376], [22.54116, 45.76125], [22.48102, 45.71929], [22.44559, 45.66305]]]}}, {"type": "Feature", "properties": {"hc-key": "ro-bt", "name": "Botosani"}, "geometry": {"type": "Polygon", "coordinates": [[[26.10294, 47.97831], [26.17345, 47.99284], [26.20452, 48.03751], [26.25576, 48.07257], [26.28685, 48.12452], [26.30385, 48.21231], [26.44489, 48.22769], [26.58779, 48.2496], [26.66604, 48.27421], [26.74366, 48.25554], [26.80474, 48.25809], [26.89785, 48.20889], [26.90791, 48.18454], [26.93794, 48.20466], [26.96346, 48.17544], [26.99806, 48.16631], [26.96622, 48.14317], [27.04808, 48.12246], [27.03442, 48.10176], [27.05892, 48.05791], [27.10973, 48.03352], [27.16946, 47.97377], [27.16113, 47.92202], [27.21264, 47.88967], [27.21247, 47.84765], [27.25308, 47.82808], [27.21956, 47.81354], [27.28793, 47.75249], [27.29496, 47.71837], [27.27238, 47.71477], [27.30368, 47.66659], [27.36908, 47.60854], [27.43092, 47.5724], [27.3759, 47.55493], [27.30665, 47.55757], [27.23169, 47.49137], [27.19127, 47.49327], [27.09247, 47.51836], [27.07087, 47.49828], [27.09236, 47.45442], [27.04027, 47.43435], [26.95676, 47.47698], [26.78969, 47.4768], [26.7438, 47.49254], [26.65887, 47.42654], [26.61756, 47.43068], [26.5679, 47.46826], [26.56201, 47.52852], [26.52707, 47.61425], [26.41617, 47.7063], [26.28371, 47.82613], [26.14149, 47.8964], [26.1194, 47.91754], [26.10294, 47.97831]]]}}, {"type": "Feature", "properties": {"hc-key": "ro-bn", "name": "Bistrita-Nasaud"}, "geometry": {"type": "Polygon", "coordinates": [[[24.19709, 46.78431], [24.22501, 46.82763], [24.23908, 46.89923], [24.21456, 46.92665], [24.16059, 46.95517], [24.16152, 46.98809], [24.13579, 47.00328], [24.14544, 47.0559], [24.12709, 47.08224], [24.04289, 47.12152], [23.98606, 47.13222], [23.951, 47.16783], [23.93668, 47.24602], [23.99826, 47.29577], [24.00737, 47.32463], [24.04627, 47.35], [24.10747, 47.41065], [24.12048, 47.45178], [24.2253, 47.47325], [24.29655, 47.53768], [24.38347, 47.56223], [24.57111, 47.53226], [24.75886, 47.53669], [24.87121, 47.58268], [24.95584, 47.58239], [25.046, 47.52976], [25.09038, 47.47144], [25.03712, 47.43034], [25.04901, 47.4001], [25.00405, 47.37922], [25.05703, 47.30401], [25.02919, 47.25785], [25.07679, 47.22821], [25.06272, 47.17255], [25.06881, 47.10322], [24.99112, 47.08179], [24.89898, 47.06673], [24.81613, 47.02194], [24.76454, 46.95638], [24.72375, 46.89041], [24.6365, 46.91483], [24.56092, 46.87609], [24.51055, 46.81288], [24.49818, 46.77363], [24.38335, 46.74669], [24.27915, 46.75705], [24.19709, 46.78431]]]}}, {"type": "Feature", "properties": {"hc-key": "ro-cj", "name": "Cluj"}, "geometry": {"type": "Polygon", "coordinates": [[[24.00737, 47.32463], [23.99826, 47.29577], [23.93668, 47.24602], [23.951, 47.16783], [23.98606, 47.13222], [24.04289, 47.12152], [24.12709, 47.08224], [24.14544, 47.0559], [24.13579, 47.00328], [24.16152, 46.98809], [24.16059, 46.95517], [24.21456, 46.92665], [24.23908, 46.89923], [24.22501, 46.82763], [24.19709, 46.78431], [24.16616, 46.78233], [24.10939, 46.71634], [24.12594, 46.67169], [24.11093, 46.63781], [24.04569, 46.61787], [24.02351, 46.571], [24.03256, 46.53468], [23.97157, 46.48862], [23.99576, 46.44966], [23.95772, 46.43647], [23.87578, 46.45193], [23.77921, 46.44559], [23.67362, 46.42856], [23.66917, 46.40041], [23.61813, 46.41413], [23.63034, 46.45896], [23.61256, 46.47549], [23.54017, 46.47698], [23.40373, 46.52698], [23.30311, 46.51402], [23.24781, 46.4842], [23.1441, 46.49171], [23.06992, 46.45628], [23.05533, 46.48746], [23.01026, 46.52488], [22.97415, 46.53579], [22.83274, 46.53803], [22.80302, 46.55704], [22.80793, 46.61936], [22.76434, 46.65674], [22.72071, 46.73857], [22.669, 46.7756], [22.66763, 46.79261], [22.72993, 46.82359], [22.76595, 46.88462], [22.68847, 46.9201], [22.71932, 46.97913], [22.85049, 46.97483], [22.88879, 46.96281], [22.93435, 46.9017], [23.01071, 46.87881], [23.09914, 46.87212], [23.2053, 46.87813], [23.21016, 46.90996], [23.24207, 46.9366], [23.27815, 46.90367], [23.35596, 46.89643], [23.3419, 46.95933], [23.38984, 46.96085], [23.40964, 46.98401], [23.47162, 46.98899], [23.48573, 47.00465], [23.45674, 47.05248], [23.48716, 47.07779], [23.50982, 47.1266], [23.59118, 47.1522], [23.62175, 47.14884], [23.66205, 47.18961], [23.81168, 47.22738], [23.82874, 47.30094], [23.8126, 47.31633], [23.84116, 47.33296], [24.00737, 47.32463]]]}}, {"type": "Feature", "properties": {"hc-key": "ro-ab", "name": "Alba"}, "geometry": {"type": "Polygon", "coordinates": [[[22.80302, 46.55704], [22.83274, 46.53803], [22.97415, 46.53579], [23.01026, 46.52488], [23.05533, 46.48746], [23.06992, 46.45628], [23.1441, 46.49171], [23.24781, 46.4842], [23.30311, 46.51402], [23.40373, 46.52698], [23.54017, 46.47698], [23.61256, 46.47549], [23.63034, 46.45896], [23.61813, 46.41413], [23.66917, 46.40041], [23.67362, 46.42856], [23.77921, 46.44559], [23.87578, 46.45193], [23.95772, 46.43647], [23.99576, 46.44966], [24.02669, 46.44804], [24.05903, 46.42024], [24.0266, 46.36885], [24.06683, 46.34065], [24.14304, 46.31273], [24.16127, 46.26628], [24.19227, 46.2439], [24.19217, 46.15983], [24.04085, 46.0555], [24.00611, 46.00221], [23.94081, 46.02911], [23.87234, 46.01812], [23.85309, 46.00297], [23.86698, 45.95827], [23.82121, 45.91863], [23.70068, 45.92008], [23.70523, 45.88732], [23.76382, 45.85488], [23.70225, 45.79037], [23.65549, 45.78596], [23.63515, 45.76222], [23.60974, 45.69324], [23.63166, 45.61774], [23.61373, 45.55507], [23.6537, 45.4807], [23.62598, 45.45186], [23.58383, 45.44756], [23.57349, 45.50391], [23.4857, 45.56399], [23.42334, 45.59007], [23.40061, 45.61982], [23.40406, 45.66074], [23.37975, 45.68739], [23.36386, 45.75816], [23.31601, 45.87664], [23.26452, 45.92918], [23.22567, 45.99979], [23.17121, 46.01625], [23.0749, 46.10435], [23.09521, 46.13916], [23.0534, 46.19682], [22.96666, 46.21937], [22.93408, 46.29192], [22.90408, 46.31705], [22.81313, 46.3107], [22.7551, 46.33353], [22.7066, 46.36888], [22.68834, 46.4218], [22.68701, 46.48328], [22.70257, 46.53199], [22.73965, 46.56566], [22.80302, 46.55704]]]}}, {"type": "Feature", "properties": {"hc-key": "ro-hd", "name": "Hunedoara"}, "geometry": {"type": "Polygon", "coordinates": [[[22.66926, 45.24043], [22.70706, 45.32228], [22.67548, 45.37409], [22.69847, 45.41273], [22.67854, 45.4924], [22.65302, 45.52006], [22.57567, 45.56704], [22.54247, 45.57001], [22.53771, 45.59724], [22.48362, 45.61156], [22.44559, 45.66305], [22.48102, 45.71929], [22.54116, 45.76125], [22.50273, 45.77376], [22.44965, 45.83745], [22.4127, 45.86277], [22.38927, 45.92458], [22.35484, 45.94998], [22.40119, 45.99146], [22.41938, 46.02509], [22.40766, 46.07153], [22.42949, 46.11444], [22.43401, 46.17615], [22.47055, 46.21172], [22.50242, 46.21907], [22.6005, 46.21071], [22.64008, 46.23173], [22.69002, 46.30003], [22.7551, 46.33353], [22.81313, 46.3107], [22.90408, 46.31705], [22.93408, 46.29192], [22.96666, 46.21937], [23.0534, 46.19682], [23.09521, 46.13916], [23.0749, 46.10435], [23.17121, 46.01625], [23.22567, 45.99979], [23.26452, 45.92918], [23.31601, 45.87664], [23.36386, 45.75816], [23.37975, 45.68739], [23.40406, 45.66074], [23.40061, 45.61982], [23.42334, 45.59007], [23.4857, 45.56399], [23.57349, 45.50391], [23.58383, 45.44756], [23.59991, 45.38164], [23.5861, 45.35259], [23.43017, 45.30396], [23.35738, 45.32176], [23.24429, 45.29494], [23.18974, 45.27181], [23.09085, 45.27943], [23.02666, 45.25954], [22.93311, 45.27696], [22.88174, 45.29522], [22.66926, 45.24043]]]}}, {"type": "Feature", "properties": {"hc-key": "ro-mm", "name": "Maramures"}, "geometry": {"type": "Polygon", "coordinates": [[[24.95584, 47.58239], [24.87121, 47.58268], [24.75886, 47.53669], [24.57111, 47.53226], [24.38347, 47.56223], [24.29655, 47.53768], [24.2253, 47.47325], [24.12048, 47.45178], [24.10747, 47.41065], [24.04627, 47.35], [24.00737, 47.32463], [23.84116, 47.33296], [23.8126, 47.31633], [23.76223, 47.30517], [23.63381, 47.36725], [23.47992, 47.36262], [23.24569, 47.4167], [23.14068, 47.41686], [23.09047, 47.40419], [22.99805, 47.41623], [22.96897, 47.44444], [23.03097, 47.4795], [23.05803, 47.52612], [23.11727, 47.57626], [23.14331, 47.57714], [23.21744, 47.53515], [23.26761, 47.53801], [23.32365, 47.58551], [23.35929, 47.64268], [23.36115, 47.66771], [23.32718, 47.68916], [23.2586, 47.70217], [23.2391, 47.72224], [23.27146, 47.74949], [23.34285, 47.74875], [23.4144, 47.73273], [23.47959, 47.74328], [23.62023, 47.81634], [23.62968, 47.83793], [23.54939, 47.88914], [23.50199, 47.93399], [23.48566, 47.9743], [23.51484, 47.99894], [23.56338, 48.00589], [23.71081, 47.98524], [23.7805, 47.98782], [23.87626, 47.93444], [23.97706, 47.96211], [24.09449, 47.93774], [24.13113, 47.9143], [24.23078, 47.89726], [24.29754, 47.91956], [24.34731, 47.92072], [24.42818, 47.9524], [24.562, 47.94071], [24.64926, 47.89502], [24.66108, 47.85385], [24.71299, 47.82567], [24.79345, 47.80471], [24.87741, 47.7186], [24.94251, 47.71553], [24.97885, 47.66258], [25.02146, 47.63226], [25.01562, 47.59623], [24.95584, 47.58239]]]}}, {"type": "Feature", "properties": {"hc-key": "ro-ms", "name": "Mures"}, "geometry": {"type": "Polygon", "coordinates": [[[24.19227, 46.2439], [24.16127, 46.26628], [24.14304, 46.31273], [24.06683, 46.34065], [24.0266, 46.36885], [24.05903, 46.42024], [24.02669, 46.44804], [23.99576, 46.44966], [23.97157, 46.48862], [24.03256, 46.53468], [24.02351, 46.571], [24.04569, 46.61787], [24.11093, 46.63781], [24.12594, 46.67169], [24.10939, 46.71634], [24.16616, 46.78233], [24.19709, 46.78431], [24.27915, 46.75705], [24.38335, 46.74669], [24.49818, 46.77363], [24.51055, 46.81288], [24.56092, 46.87609], [24.6365, 46.91483], [24.72375, 46.89041], [24.76454, 46.95638], [24.81613, 47.02194], [24.89898, 47.06673], [24.99112, 47.08179], [25.06881, 47.10322], [25.15931, 47.09131], [25.2044, 47.0762], [25.21101, 47.03854], [25.257, 46.99418], [25.27052, 46.90607], [25.25495, 46.83823], [25.28944, 46.75835], [25.27227, 46.6576], [25.21508, 46.62139], [25.17833, 46.58366], [25.09389, 46.54817], [25.0345, 46.50575], [25.01807, 46.44821], [24.94001, 46.41515], [24.96718, 46.37117], [24.87873, 46.33728], [24.8769, 46.31654], [24.95589, 46.24915], [24.99334, 46.23337], [25.05665, 46.2302], [25.10941, 46.20184], [25.18765, 46.14341], [25.04607, 46.13255], [24.99514, 46.11157], [24.98199, 46.06383], [24.89484, 46.10063], [24.79526, 46.09449], [24.72142, 46.08025], [24.68995, 46.10032], [24.67392, 46.14812], [24.66295, 46.2417], [24.67786, 46.26272], [24.58557, 46.26446], [24.51373, 46.24099], [24.44335, 46.24431], [24.37631, 46.23244], [24.30261, 46.2496], [24.19227, 46.2439]]]}}, {"type": "Feature", "properties": {"hc-key": "ro-sj", "name": "Salaj"}, "geometry": {"type": "Polygon", "coordinates": [[[23.8126, 47.31633], [23.82874, 47.30094], [23.81168, 47.22738], [23.66205, 47.18961], [23.62175, 47.14884], [23.59118, 47.1522], [23.50982, 47.1266], [23.48716, 47.07779], [23.45674, 47.05248], [23.48573, 47.00465], [23.47162, 46.98899], [23.40964, 46.98401], [23.38984, 46.96085], [23.3419, 46.95933], [23.35596, 46.89643], [23.27815, 46.90367], [23.24207, 46.9366], [23.21016, 46.90996], [23.2053, 46.87813], [23.09914, 46.87212], [23.01071, 46.87881], [22.93435, 46.9017], [22.88879, 46.96281], [22.85049, 46.97483], [22.71932, 46.97913], [22.66391, 47.02578], [22.59085, 47.05831], [22.50743, 47.15984], [22.4947, 47.19406], [22.53707, 47.23227], [22.58059, 47.32168], [22.62348, 47.34465], [22.75443, 47.38796], [22.80159, 47.39274], [22.91175, 47.37176], [22.9641, 47.34377], [23.05128, 47.31635], [23.10484, 47.35534], [23.09047, 47.40419], [23.14068, 47.41686], [23.24569, 47.4167], [23.47992, 47.36262], [23.63381, 47.36725], [23.76223, 47.30517], [23.8126, 47.31633]]]}}, {"type": "Feature", "properties": {"hc-key": "ro-sm", "name": "Satu Mare"}, "geometry": {"type": "Polygon", "coordinates": [[[23.09047, 47.40419], [23.10484, 47.35534], [23.05128, 47.31635], [22.9641, 47.34377], [22.91175, 47.37176], [22.80159, 47.39274], [22.75443, 47.38796], [22.62348, 47.34465], [22.58059, 47.32168], [22.55451, 47.3761], [22.47248, 47.41248], [22.42871, 47.39977], [22.36039, 47.40128], [22.26627, 47.51012], [22.22482, 47.53094], [22.16766, 47.59494], [22.20432, 47.66653], [22.26207, 47.71584], [22.32165, 47.73596], [22.4077, 47.7431], [22.42409, 47.78274], [22.45439, 47.7876], [22.56274, 47.75713], [22.63741, 47.77157], [22.69199, 47.81079], [22.74599, 47.82499], [22.75298, 47.86119], [22.83564, 47.90259], [22.87742, 47.94674], [22.91543, 47.95906], [22.91546, 47.99317], [22.93898, 48.00558], [23.02046, 47.98468], [23.06318, 48.00748], [23.11857, 48.09159], [23.16188, 48.09609], [23.23128, 48.07951], [23.36009, 47.99292], [23.48566, 47.9743], [23.50199, 47.93399], [23.54939, 47.88914], [23.62968, 47.83793], [23.62023, 47.81634], [23.47959, 47.74328], [23.4144, 47.73273], [23.34285, 47.74875], [23.27146, 47.74949], [23.2391, 47.72224], [23.2586, 47.70217], [23.32718, 47.68916], [23.36115, 47.66771], [23.35929, 47.64268], [23.32365, 47.58551], [23.26761, 47.53801], [23.21744, 47.53515], [23.14331, 47.57714], [23.11727, 47.57626], [23.05803, 47.52612], [23.03097, 47.4795], [22.96897, 47.44444], [22.99805, 47.41623], [23.09047, 47.40419]]]}}, {"type": "Feature", "properties": {"hc-key": "ro-ag", "name": "Arges"}, "geometry": {"type": "Polygon", "coordinates": [[[24.5274, 45.56207], [24.70889, 45.59875], [24.77207, 45.60305], [24.8387, 45.5629], [24.8928, 45.57732], [24.98378, 45.58018], [25.09517, 45.56991], [25.22045, 45.50309], [25.27595, 45.41621], [25.30964, 45.38869], [25.33413, 45.34946], [25.29423, 45.26845], [25.27067, 45.19194], [25.24465, 45.16961], [25.19479, 45.19381], [25.16909, 45.16233], [25.17397, 45.09052], [25.21915, 45.04798], [25.23589, 45.00681], [25.19682, 44.96538], [25.21554, 44.85967], [25.2078, 44.7779], [25.18493, 44.71601], [25.21905, 44.69035], [25.19112, 44.65457], [25.25452, 44.58975], [25.31299, 44.57296], [25.29231, 44.52208], [25.30279, 44.48385], [25.27863, 44.43719], [25.18968, 44.45348], [25.1448, 44.44728], [25.10136, 44.4228], [25.02165, 44.41657], [24.98088, 44.39088], [24.89395, 44.39784], [24.85176, 44.38974], [24.76576, 44.41673], [24.74351, 44.5089], [24.75061, 44.5456], [24.72519, 44.65111], [24.69268, 44.69615], [24.71737, 44.74173], [24.65318, 44.74348], [24.62138, 44.76841], [24.5693, 44.84774], [24.56403, 44.89149], [24.47363, 44.82251], [24.43818, 44.84974], [24.51163, 44.91412], [24.4894, 44.95202], [24.50695, 45.04196], [24.53729, 45.13583], [24.52958, 45.17466], [24.49362, 45.2287], [24.49229, 45.31762], [24.51455, 45.36136], [24.49363, 45.42426], [24.5392, 45.53004], [24.5274, 45.56207]]]}}, {"type": "Feature", "properties": {"hc-key": "ro-sb", "name": "Sibiu"}, "geometry": {"type": "Polygon", "coordinates": [[[24.70889, 45.59875], [24.5274, 45.56207], [24.32182, 45.56291], [24.16873, 45.53729], [24.06857, 45.49638], [23.96029, 45.51243], [23.79418, 45.50789], [23.64683, 45.45065], [23.62598, 45.45186], [23.6537, 45.4807], [23.61373, 45.55507], [23.63166, 45.61774], [23.60974, 45.69324], [23.63515, 45.76222], [23.65549, 45.78596], [23.70225, 45.79037], [23.76382, 45.85488], [23.70523, 45.88732], [23.70068, 45.92008], [23.82121, 45.91863], [23.86698, 45.95827], [23.85309, 46.00297], [23.87234, 46.01812], [23.94081, 46.02911], [24.00611, 46.00221], [24.04085, 46.0555], [24.19217, 46.15983], [24.19227, 46.2439], [24.30261, 46.2496], [24.37631, 46.23244], [24.44335, 46.24431], [24.51373, 46.24099], [24.58557, 46.26446], [24.67786, 46.26272], [24.66295, 46.2417], [24.67392, 46.14812], [24.68995, 46.10032], [24.72142, 46.08025], [24.79526, 46.09449], [24.89484, 46.10063], [24.98199, 46.06383], [24.90093, 46.00937], [24.8458, 45.98824], [24.84129, 45.94673], [24.81063, 45.94919], [24.72128, 45.91333], [24.74105, 45.81321], [24.66957, 45.7935], [24.64981, 45.76629], [24.6813, 45.72064], [24.70889, 45.59875]]]}}, {"type": "Feature", "properties": {"hc-key": "ro-vl", "name": "V\u00e2lcea"}, "geometry": {"type": "Polygon", "coordinates": [[[24.5274, 45.56207], [24.5392, 45.53004], [24.49363, 45.42426], [24.51455, 45.36136], [24.49229, 45.31762], [24.49362, 45.2287], [24.52958, 45.17466], [24.53729, 45.13583], [24.50695, 45.04196], [24.4894, 44.95202], [24.51163, 44.91412], [24.43818, 44.84974], [24.43952, 44.89668], [24.4079, 44.91364], [24.35377, 44.86], [24.33593, 44.8011], [24.28633, 44.7457], [24.33313, 44.58291], [24.31822, 44.57342], [24.29314, 44.61792], [24.21637, 44.56428], [24.1498, 44.5663], [24.07554, 44.5175], [24.02019, 44.5508], [23.95824, 44.52967], [23.90172, 44.58359], [23.88117, 44.63299], [23.79608, 44.67511], [23.77551, 44.72266], [23.7933, 44.83344], [23.77919, 44.94819], [23.82501, 45.08168], [23.82152, 45.12911], [23.84318, 45.1888], [23.8209, 45.2485], [23.83577, 45.30679], [23.78912, 45.33777], [23.72807, 45.33299], [23.5861, 45.35259], [23.59991, 45.38164], [23.58383, 45.44756], [23.62598, 45.45186], [23.64683, 45.45065], [23.79418, 45.50789], [23.96029, 45.51243], [24.06857, 45.49638], [24.16873, 45.53729], [24.32182, 45.56291], [24.5274, 45.56207]]]}}, {"type": "Feature", "properties": {"hc-key": "ro-bv", "name": "Brasov"}, "geometry": {"type": "Polygon", "coordinates": [[[25.30964, 45.38869], [25.27595, 45.41621], [25.22045, 45.50309], [25.09517, 45.56991], [24.98378, 45.58018], [24.8928, 45.57732], [24.8387, 45.5629], [24.77207, 45.60305], [24.70889, 45.59875], [24.6813, 45.72064], [24.64981, 45.76629], [24.66957, 45.7935], [24.74105, 45.81321], [24.72128, 45.91333], [24.81063, 45.94919], [24.84129, 45.94673], [24.8458, 45.98824], [24.90093, 46.00937], [24.98199, 46.06383], [24.99514, 46.11157], [25.04607, 46.13255], [25.18765, 46.14341], [25.29647, 46.16702], [25.32986, 46.16446], [25.42735, 46.12747], [25.45423, 46.10591], [25.45954, 46.07248], [25.50586, 46.04264], [25.55476, 46.0457], [25.57113, 46.02154], [25.55802, 45.98788], [25.5541, 45.86965], [25.56704, 45.84118], [25.66861, 45.78515], [25.67114, 45.75168], [25.7683, 45.76556], [25.80187, 45.74216], [25.89458, 45.71751], [25.94912, 45.68452], [25.98025, 45.6452], [26.04852, 45.61411], [26.10053, 45.56458], [26.04641, 45.48251], [25.94543, 45.51026], [25.90316, 45.50072], [25.86276, 45.44184], [25.82288, 45.4457], [25.79026, 45.47338], [25.7506, 45.46565], [25.62806, 45.48495], [25.45891, 45.4633], [25.42977, 45.45255], [25.36985, 45.39932], [25.30964, 45.38869]]]}}, {"type": "Feature", "properties": {"hc-key": "ro-cv", "name": "Covasna"}, "geometry": {"type": "Polygon", "coordinates": [[[26.10053, 45.56458], [26.04852, 45.61411], [25.98025, 45.6452], [25.94912, 45.68452], [25.89458, 45.71751], [25.80187, 45.74216], [25.7683, 45.76556], [25.67114, 45.75168], [25.66861, 45.78515], [25.56704, 45.84118], [25.5541, 45.86965], [25.55802, 45.98788], [25.57113, 46.02154], [25.55476, 46.0457], [25.50586, 46.04264], [25.45954, 46.07248], [25.45423, 46.10591], [25.49727, 46.16557], [25.56876, 46.21461], [25.60469, 46.25099], [25.67837, 46.29085], [25.75126, 46.2539], [25.79599, 46.17581], [25.89803, 46.11592], [25.99184, 46.1107], [26.25141, 46.15046], [26.32468, 46.17954], [26.40047, 46.14464], [26.40189, 46.09409], [26.44061, 46.07479], [26.48487, 46.0214], [26.42091, 45.95043], [26.40467, 45.91745], [26.38063, 45.8028], [26.39514, 45.74988], [26.32885, 45.61793], [26.28477, 45.60304], [26.23413, 45.62526], [26.18885, 45.57438], [26.10053, 45.56458]]]}}, {"type": "Feature", "properties": {"hc-key": "ro-hr", "name": "Harghita"}, "geometry": {"type": "Polygon", "coordinates": [[[26.25141, 46.15046], [25.99184, 46.1107], [25.89803, 46.11592], [25.79599, 46.17581], [25.75126, 46.2539], [25.67837, 46.29085], [25.60469, 46.25099], [25.56876, 46.21461], [25.49727, 46.16557], [25.45423, 46.10591], [25.42735, 46.12747], [25.32986, 46.16446], [25.29647, 46.16702], [25.18765, 46.14341], [25.10941, 46.20184], [25.05665, 46.2302], [24.99334, 46.23337], [24.95589, 46.24915], [24.8769, 46.31654], [24.87873, 46.33728], [24.96718, 46.37117], [24.94001, 46.41515], [25.01807, 46.44821], [25.0345, 46.50575], [25.09389, 46.54817], [25.17833, 46.58366], [25.21508, 46.62139], [25.27227, 46.6576], [25.28944, 46.75835], [25.25495, 46.83823], [25.27052, 46.90607], [25.257, 46.99418], [25.21101, 47.03854], [25.2044, 47.0762], [25.28216, 47.07008], [25.31169, 47.1229], [25.37273, 47.14022], [25.40682, 47.13461], [25.58317, 47.0474], [25.67111, 47.0582], [25.73663, 47.03885], [25.79171, 46.96635], [25.8658, 46.91291], [25.86641, 46.88368], [25.83174, 46.88516], [25.81631, 46.85942], [25.8279, 46.69387], [25.88931, 46.6348], [25.91493, 46.63565], [25.90707, 46.67456], [25.92728, 46.68206], [26.00895, 46.66818], [26.01208, 46.59329], [26.02879, 46.54836], [26.06956, 46.48718], [26.03287, 46.46799], [26.01861, 46.42706], [26.03841, 46.40348], [26.13282, 46.39083], [26.16214, 46.37338], [26.15955, 46.31246], [26.1825, 46.30592], [26.24726, 46.32647], [26.29307, 46.31945], [26.28022, 46.22678], [26.25141, 46.15046]]]}}, {"type": "Feature", "properties": {"hc-key": "ro-is", "name": "Iasi"}, "geometry": {"type": "Polygon", "coordinates": [[[26.65887, 47.42654], [26.7438, 47.49254], [26.78969, 47.4768], [26.95676, 47.47698], [27.04027, 47.43435], [27.09236, 47.45442], [27.07087, 47.49828], [27.09247, 47.51836], [27.19127, 47.49327], [27.23169, 47.49137], [27.30665, 47.55757], [27.3759, 47.55493], [27.43092, 47.5724], [27.47339, 47.49185], [27.56299, 47.4683], [27.58255, 47.45054], [27.56244, 47.41654], [27.57275, 47.37508], [27.60038, 47.36093], [27.63737, 47.30653], [27.72301, 47.28348], [27.78807, 47.20449], [27.80682, 47.14468], [27.84384, 47.11457], [27.93835, 47.06085], [27.939, 47.04684], [28.00811, 47.02615], [28.02783, 47.03268], [28.0827, 46.97127], [28.10243, 46.93514], [28.12272, 46.84237], [28.01931, 46.81898], [27.98939, 46.83264], [27.9554, 46.81709], [27.8211, 46.85407], [27.83765, 46.89049], [27.81409, 46.91868], [27.77536, 46.88362], [27.70944, 46.93704], [27.6254, 46.97407], [27.6211, 46.90953], [27.66724, 46.90379], [27.62873, 46.87843], [27.55956, 46.88853], [27.52996, 46.86005], [27.47571, 46.85054], [27.41456, 46.86296], [27.32038, 46.85413], [27.20498, 46.85927], [27.14392, 46.93427], [27.16357, 46.96348], [27.23931, 46.99197], [27.14786, 47.07495], [27.09615, 47.06831], [27.03907, 47.03119], [26.97405, 47.03972], [26.92777, 47.0056], [26.87255, 47.01103], [26.7878, 47.05232], [26.72087, 47.07227], [26.64863, 47.07634], [26.60257, 47.15658], [26.55125, 47.20754], [26.48199, 47.25354], [26.55881, 47.26543], [26.57297, 47.28558], [26.51175, 47.32431], [26.52134, 47.35358], [26.62625, 47.34484], [26.65576, 47.35285], [26.67332, 47.41258], [26.65887, 47.42654]]]}}, {"type": "Feature", "properties": {"hc-key": "ro-nt", "name": "Neamt"}, "geometry": {"type": "Polygon", "coordinates": [[[26.48199, 47.25354], [26.55125, 47.20754], [26.60257, 47.15658], [26.64863, 47.07634], [26.72087, 47.07227], [26.7878, 47.05232], [26.87255, 47.01103], [26.92777, 47.0056], [26.97405, 47.03972], [27.03907, 47.03119], [27.09615, 47.06831], [27.14786, 47.07495], [27.23931, 46.99197], [27.16357, 46.96348], [27.14392, 46.93427], [27.20498, 46.85927], [27.23308, 46.78613], [27.22581, 46.7429], [27.18589, 46.72896], [27.06634, 46.75163], [26.97153, 46.74373], [26.93162, 46.77416], [26.9316, 46.79487], [26.889, 46.81067], [26.88285, 46.78021], [26.85099, 46.75825], [26.85195, 46.73389], [26.8033, 46.71493], [26.73321, 46.74098], [26.68553, 46.71406], [26.62367, 46.69621], [26.5814, 46.66683], [26.45401, 46.66629], [26.40746, 46.635], [26.3111, 46.63324], [26.27579, 46.69515], [26.2306, 46.69851], [26.1691, 46.66762], [26.11083, 46.65988], [26.0451, 46.67518], [26.00895, 46.66818], [25.92728, 46.68206], [25.90707, 46.67456], [25.91493, 46.63565], [25.88931, 46.6348], [25.8279, 46.69387], [25.81631, 46.85942], [25.83174, 46.88516], [25.86641, 46.88368], [25.8658, 46.91291], [25.79171, 46.96635], [25.73663, 47.03885], [25.67111, 47.0582], [25.69627, 47.12305], [25.74091, 47.15948], [25.79476, 47.18686], [25.81982, 47.22488], [25.77143, 47.26883], [25.79448, 47.27821], [25.87865, 47.23339], [25.98191, 47.25749], [26.03938, 47.2452], [26.11077, 47.2543], [26.22259, 47.2539], [26.3527, 47.29307], [26.43242, 47.28862], [26.48199, 47.25354]]]}}, {"type": "Feature", "properties": {"hc-key": "ro-ph", "name": "Prahova"}, "geometry": {"type": "Polygon", "coordinates": [[[25.42977, 45.45255], [25.45891, 45.4633], [25.62806, 45.48495], [25.7506, 45.46565], [25.79026, 45.47338], [25.82288, 45.4457], [25.86276, 45.44184], [25.90316, 45.50072], [25.94543, 45.51026], [26.04641, 45.48251], [26.17424, 45.38664], [26.21323, 45.31869], [26.20854, 45.28332], [26.24778, 45.25252], [26.26202, 45.21849], [26.33363, 45.21284], [26.37877, 45.18385], [26.41652, 45.19867], [26.41604, 45.16151], [26.46897, 45.1179], [26.48959, 45.02478], [26.54212, 45.00916], [26.57756, 44.97762], [26.54357, 44.93484], [26.54714, 44.91658], [26.60409, 44.865], [26.56583, 44.82648], [26.52061, 44.80741], [26.45299, 44.80833], [26.42239, 44.78685], [26.35385, 44.79562], [26.26959, 44.75978], [26.16343, 44.76819], [26.10293, 44.75372], [26.04223, 44.75322], [26.02881, 44.73788], [25.9849, 44.75578], [25.91623, 44.81546], [25.8363, 44.83173], [25.81716, 44.84677], [25.8139, 44.92167], [25.78246, 44.94876], [25.74397, 44.94347], [25.69508, 44.98069], [25.68152, 45.04816], [25.62694, 45.10235], [25.57258, 45.17784], [25.52575, 45.22355], [25.52726, 45.26499], [25.49592, 45.30845], [25.46615, 45.32389], [25.42977, 45.45255]]]}}, {"type": "Feature", "properties": {"hc-key": "ro-sv", "name": "Suceava"}, "geometry": {"type": "Polygon", "coordinates": [[[26.65887, 47.42654], [26.67332, 47.41258], [26.65576, 47.35285], [26.62625, 47.34484], [26.52134, 47.35358], [26.51175, 47.32431], [26.57297, 47.28558], [26.55881, 47.26543], [26.48199, 47.25354], [26.43242, 47.28862], [26.3527, 47.29307], [26.22259, 47.2539], [26.11077, 47.2543], [26.03938, 47.2452], [25.98191, 47.25749], [25.87865, 47.23339], [25.79448, 47.27821], [25.77143, 47.26883], [25.81982, 47.22488], [25.79476, 47.18686], [25.74091, 47.15948], [25.69627, 47.12305], [25.67111, 47.0582], [25.58317, 47.0474], [25.40682, 47.13461], [25.37273, 47.14022], [25.31169, 47.1229], [25.28216, 47.07008], [25.2044, 47.0762], [25.15931, 47.09131], [25.06881, 47.10322], [25.06272, 47.17255], [25.07679, 47.22821], [25.02919, 47.25785], [25.05703, 47.30401], [25.00405, 47.37922], [25.04901, 47.4001], [25.03712, 47.43034], [25.09038, 47.47144], [25.046, 47.52976], [24.95584, 47.58239], [25.01562, 47.59623], [25.02146, 47.63226], [24.97885, 47.66258], [24.94251, 47.71553], [25.01706, 47.72475], [25.07957, 47.74287], [25.12192, 47.77037], [25.2194, 47.87849], [25.26217, 47.89863], [25.75211, 47.93484], [25.91814, 47.96819], [25.96536, 47.96497], [26.0295, 47.97771], [26.10294, 47.97831], [26.1194, 47.91754], [26.14149, 47.8964], [26.28371, 47.82613], [26.41617, 47.7063], [26.52707, 47.61425], [26.56201, 47.52852], [26.5679, 47.46826], [26.61756, 47.43068], [26.65887, 47.42654]]]}}, {"type": "Feature", "properties": {"hc-key": "ro-bc", "name": "Bacau"}, "geometry": {"type": "Polygon", "coordinates": [[[26.48487, 46.0214], [26.44061, 46.07479], [26.40189, 46.09409], [26.40047, 46.14464], [26.32468, 46.17954], [26.25141, 46.15046], [26.28022, 46.22678], [26.29307, 46.31945], [26.24726, 46.32647], [26.1825, 46.30592], [26.15955, 46.31246], [26.16214, 46.37338], [26.13282, 46.39083], [26.03841, 46.40348], [26.01861, 46.42706], [26.03287, 46.46799], [26.06956, 46.48718], [26.02879, 46.54836], [26.01208, 46.59329], [26.00895, 46.66818], [26.0451, 46.67518], [26.11083, 46.65988], [26.1691, 46.66762], [26.2306, 46.69851], [26.27579, 46.69515], [26.3111, 46.63324], [26.40746, 46.635], [26.45401, 46.66629], [26.5814, 46.66683], [26.62367, 46.69621], [26.68553, 46.71406], [26.73321, 46.74098], [26.8033, 46.71493], [26.85195, 46.73389], [26.85099, 46.75825], [26.88285, 46.78021], [26.889, 46.81067], [26.9316, 46.79487], [26.93162, 46.77416], [26.97153, 46.74373], [27.06634, 46.75163], [27.18589, 46.72896], [27.22581, 46.7429], [27.30523, 46.68729], [27.33601, 46.65492], [27.33734, 46.58487], [27.44145, 46.45905], [27.4788, 46.39738], [27.513, 46.28881], [27.51972, 46.16269], [27.44528, 46.17154], [27.39517, 46.15345], [27.35234, 46.17186], [27.23307, 46.16303], [27.09967, 46.07916], [27.01827, 46.09321], [26.98151, 46.06215], [26.76705, 46.0808], [26.67079, 46.0769], [26.64285, 46.06586], [26.63091, 46.01952], [26.60038, 46.00907], [26.48487, 46.0214]]]}}, {"type": "Feature", "properties": {"hc-key": "ro-br", "name": "Braila"}, "geometry": {"type": "Polygon", "coordinates": [[[27.20105, 44.81921], [27.20381, 44.87282], [27.17824, 44.91856], [27.23835, 44.93794], [27.27056, 45.03901], [27.21736, 45.05801], [27.2055, 45.10677], [27.16428, 45.13242], [27.14376, 45.18789], [27.11528, 45.16172], [27.07911, 45.15932], [27.06452, 45.20136], [27.08695, 45.21841], [27.16717, 45.23781], [27.30512, 45.23448], [27.30971, 45.28625], [27.38753, 45.30856], [27.42351, 45.38641], [27.4829, 45.45745], [27.58022, 45.49355], [27.63719, 45.47558], [27.70302, 45.47702], [27.76477, 45.43337], [27.81984, 45.41227], [27.921, 45.40967], [28.03058, 45.39534], [28.02194, 45.3479], [27.98642, 45.29216], [28.07535, 45.2481], [28.11004, 45.25813], [28.13034, 45.23782], [28.0974, 45.18393], [28.15294, 45.16145], [28.17822, 45.13438], [28.1317, 45.08916], [28.1427, 45.03666], [28.13117, 45.01849], [28.14117, 44.95991], [28.12372, 44.94485], [28.12526, 44.89183], [28.07973, 44.84048], [28.05459, 44.77674], [27.99529, 44.76082], [27.91086, 44.77554], [27.85494, 44.81131], [27.78731, 44.81058], [27.68603, 44.78686], [27.4123, 44.79244], [27.35934, 44.80663], [27.28311, 44.79527], [27.20105, 44.81921]]]}}, {"type": "Feature", "properties": {"hc-key": "ro-bz", "name": "Buzau"}, "geometry": {"type": "Polygon", "coordinates": [[[27.42351, 45.38641], [27.38753, 45.30856], [27.30971, 45.28625], [27.30512, 45.23448], [27.16717, 45.23781], [27.08695, 45.21841], [27.06452, 45.20136], [27.07911, 45.15932], [27.11528, 45.16172], [27.14376, 45.18789], [27.16428, 45.13242], [27.2055, 45.10677], [27.21736, 45.05801], [27.27056, 45.03901], [27.23835, 44.93794], [27.17824, 44.91856], [27.20381, 44.87282], [27.20105, 44.81921], [27.17446, 44.80097], [27.20348, 44.78082], [27.12474, 44.76022], [27.10515, 44.80654], [27.0367, 44.82182], [27.00074, 44.80233], [26.89972, 44.82665], [26.85008, 44.82172], [26.76784, 44.83499], [26.65995, 44.83594], [26.60409, 44.865], [26.54714, 44.91658], [26.54357, 44.93484], [26.57756, 44.97762], [26.54212, 45.00916], [26.48959, 45.02478], [26.46897, 45.1179], [26.41604, 45.16151], [26.41652, 45.19867], [26.37877, 45.18385], [26.33363, 45.21284], [26.26202, 45.21849], [26.24778, 45.25252], [26.20854, 45.28332], [26.21323, 45.31869], [26.17424, 45.38664], [26.04641, 45.48251], [26.10053, 45.56458], [26.18885, 45.57438], [26.23413, 45.62526], [26.28477, 45.60304], [26.32885, 45.61793], [26.39514, 45.74988], [26.38063, 45.8028], [26.42448, 45.77318], [26.53258, 45.65062], [26.56926, 45.62457], [26.66912, 45.62125], [26.75445, 45.5636], [26.83174, 45.5284], [26.89416, 45.51873], [26.90712, 45.54494], [26.97561, 45.5334], [27.00595, 45.48162], [27.06393, 45.45053], [27.13754, 45.46752], [27.14697, 45.43035], [27.20069, 45.45159], [27.27591, 45.43499], [27.30772, 45.39653], [27.42351, 45.38641]]]}}, {"type": "Feature", "properties": {"hc-key": "ro-gl", "name": "Galati"}, "geometry": {"type": "Polygon", "coordinates": [[[28.10748, 46.09638], [28.08633, 46.00034], [28.12488, 45.91834], [28.13091, 45.87138], [28.11342, 45.82525], [28.15481, 45.7621], [28.16777, 45.63221], [28.12079, 45.62781], [28.06197, 45.59365], [28.14112, 45.55999], [28.16561, 45.52806], [28.16578, 45.49455], [28.21507, 45.45018], [28.191, 45.41693], [28.12461, 45.42796], [28.04384, 45.41106], [28.03058, 45.39534], [27.921, 45.40967], [27.81984, 45.41227], [27.76477, 45.43337], [27.70302, 45.47702], [27.63719, 45.47558], [27.58022, 45.49355], [27.54328, 45.52541], [27.51373, 45.61083], [27.45693, 45.67138], [27.38514, 45.71855], [27.25921, 45.94247], [27.26128, 46.01251], [27.34909, 46.07319], [27.4288, 46.08206], [27.47634, 46.11354], [27.5333, 46.11634], [27.58007, 46.06616], [27.60136, 46.01245], [27.6327, 46.0007], [27.64478, 46.06216], [27.61553, 46.1074], [27.63152, 46.12741], [27.80302, 46.11293], [27.83583, 46.08163], [27.87836, 46.11421], [27.91795, 46.12486], [28.07057, 46.08942], [28.10748, 46.09638]]]}}, {"type": "Feature", "properties": {"hc-key": "ro-vs", "name": "Vaslui"}, "geometry": {"type": "Polygon", "coordinates": [[[28.12272, 46.84237], [28.17858, 46.75837], [28.17818, 46.7401], [28.23399, 46.66216], [28.24688, 46.6072], [28.22571, 46.56967], [28.21893, 46.50396], [28.24563, 46.47565], [28.24631, 46.42814], [28.1881, 46.34348], [28.17809, 46.28694], [28.13555, 46.26909], [28.10937, 46.23402], [28.1443, 46.18312], [28.10748, 46.09638], [28.07057, 46.08942], [27.91795, 46.12486], [27.87836, 46.11421], [27.83583, 46.08163], [27.80302, 46.11293], [27.63152, 46.12741], [27.61553, 46.1074], [27.64478, 46.06216], [27.6327, 46.0007], [27.60136, 46.01245], [27.58007, 46.06616], [27.5333, 46.11634], [27.51972, 46.16269], [27.513, 46.28881], [27.4788, 46.39738], [27.44145, 46.45905], [27.33734, 46.58487], [27.33601, 46.65492], [27.30523, 46.68729], [27.22581, 46.7429], [27.23308, 46.78613], [27.20498, 46.85927], [27.32038, 46.85413], [27.41456, 46.86296], [27.47571, 46.85054], [27.52996, 46.86005], [27.55956, 46.88853], [27.62873, 46.87843], [27.66724, 46.90379], [27.6211, 46.90953], [27.6254, 46.97407], [27.70944, 46.93704], [27.77536, 46.88362], [27.81409, 46.91868], [27.83765, 46.89049], [27.8211, 46.85407], [27.9554, 46.81709], [27.98939, 46.83264], [28.01931, 46.81898], [28.12272, 46.84237]]]}}, {"type": "Feature", "properties": {"hc-key": "ro-vn", "name": "Vrancea"}, "geometry": {"type": "Polygon", "coordinates": [[[27.51972, 46.16269], [27.5333, 46.11634], [27.47634, 46.11354], [27.4288, 46.08206], [27.34909, 46.07319], [27.26128, 46.01251], [27.25921, 45.94247], [27.38514, 45.71855], [27.45693, 45.67138], [27.51373, 45.61083], [27.54328, 45.52541], [27.58022, 45.49355], [27.4829, 45.45745], [27.42351, 45.38641], [27.30772, 45.39653], [27.27591, 45.43499], [27.20069, 45.45159], [27.14697, 45.43035], [27.13754, 45.46752], [27.06393, 45.45053], [27.00595, 45.48162], [26.97561, 45.5334], [26.90712, 45.54494], [26.89416, 45.51873], [26.83174, 45.5284], [26.75445, 45.5636], [26.66912, 45.62125], [26.56926, 45.62457], [26.53258, 45.65062], [26.42448, 45.77318], [26.38063, 45.8028], [26.40467, 45.91745], [26.42091, 45.95043], [26.48487, 46.0214], [26.60038, 46.00907], [26.63091, 46.01952], [26.64285, 46.06586], [26.67079, 46.0769], [26.76705, 46.0808], [26.98151, 46.06215], [27.01827, 46.09321], [27.09967, 46.07916], [27.23307, 46.16303], [27.35234, 46.17186], [27.39517, 46.15345], [27.44528, 46.17154], [27.51972, 46.16269]]]}}, {"type": "Feature", "properties": {"hc-key": "ro-if", "name": "Ilfov"}, "geometry": {"type": "Polygon", "coordinates": [[[26.02881, 44.73788], [26.04223, 44.75322], [26.10293, 44.75372], [26.16343, 44.76819], [26.26959, 44.75978], [26.34417, 44.74378], [26.35936, 44.68477], [26.43057, 44.65102], [26.43169, 44.62361], [26.3918, 44.60391], [26.36749, 44.56478], [26.43437, 44.52309], [26.41166, 44.49556], [26.46044, 44.46777], [26.43855, 44.44269], [26.34206, 44.40135], [26.29086, 44.34803], [26.28015, 44.32115], [26.18846, 44.26144], [26.13162, 44.26345], [26.02292, 44.32473], [25.98974, 44.32931], [25.90496, 44.36936], [25.88907, 44.40089], [25.89757, 44.44606], [25.93181, 44.52742], [25.90723, 44.56618], [25.9779, 44.61923], [25.98768, 44.64552], [25.95423, 44.65436], [25.99168, 44.71014], [26.02881, 44.73788]], [[26.21073, 44.43403], [26.16698, 44.46114], [26.19095, 44.51188], [26.11326, 44.52532], [26.10456, 44.59288], [26.0375, 44.57466], [25.98909, 44.51515], [26.0413, 44.49854], [26.04182, 44.46686], [25.97553, 44.46262], [25.97608, 44.43095], [26.04154, 44.38033], [26.0969, 44.37103], [26.14512, 44.32632], [26.17205, 44.34297], [26.14068, 44.39818], [26.14811, 44.41286], [26.19585, 44.40285], [26.21073, 44.43403]]]}}, {"type": "Feature", "properties": {"hc-key": "ro-tl", "name": "Tulcea"}, "geometry": {"type": "Polygon", "coordinates": [[[28.05459, 44.77674], [28.07973, 44.84048], [28.12526, 44.89183], [28.12372, 44.94485], [28.14117, 44.95991], [28.13117, 45.01849], [28.1427, 45.03666], [28.1317, 45.08916], [28.17822, 45.13438], [28.15294, 45.16145], [28.0974, 45.18393], [28.13034, 45.23782], [28.11004, 45.25813], [28.07535, 45.2481], [27.98642, 45.29216], [28.02194, 45.3479], [28.03058, 45.39534], [28.04384, 45.41106], [28.12461, 45.42796], [28.191, 45.41693], [28.21507, 45.45018], [28.26678, 45.44048], [28.33065, 45.32278], [28.4051, 45.29509], [28.49444, 45.27872], [28.5773, 45.24837], [28.71033, 45.22696], [28.77858, 45.2314], [28.80227, 45.24443], [28.76733, 45.25777], [28.79003, 45.32138], [28.81608, 45.32584], [28.93021, 45.27889], [28.96614, 45.3197], [29.01835, 45.33098], [29.06952, 45.36052], [29.17431, 45.38903], [29.22842, 45.42393], [29.28199, 45.42227], [29.32182, 45.444], [29.43027, 45.43017], [29.56969, 45.39483], [29.65042, 45.34607], [29.67204, 45.27307], [29.65903, 45.21611], [29.6237, 45.21632], [29.66694, 45.16414], [29.69954, 45.16155], [29.66473, 45.11667], [29.65636, 45.02914], [29.63796, 44.98387], [29.63019, 44.90789], [29.60492, 44.87984], [29.61779, 44.86127], [29.56201, 44.82049], [29.51065, 44.82042], [29.31632, 44.79894], [29.19201, 44.79286], [29.15576, 44.78441], [29.05563, 44.73508], [29.00105, 44.68914], [28.97476, 44.74504], [29.09811, 44.77513], [29.14449, 44.82666], [29.0966, 44.87508], [29.10389, 44.84021], [29.05995, 44.83249], [29.04399, 44.86567], [29.05195, 44.94473], [29.09871, 44.95668], [29.10215, 44.98037], [29.04549, 45.00455], [28.97271, 45.01071], [28.9599, 44.98778], [28.91672, 44.97998], [28.86918, 44.94361], [28.8632, 44.89131], [28.95271, 44.82645], [28.92561, 44.78365], [28.94637, 44.76502], [28.87938, 44.7564], [28.80835, 44.72708], [28.78553, 44.67992], [28.67112, 44.71028], [28.60579, 44.69599], [28.5272, 44.69585], [28.45513, 44.71751], [28.40406, 44.76079], [28.34676, 44.76087], [28.32526, 44.71787], [28.28237, 44.71044], [28.19555, 44.76804], [28.14537, 44.78257], [28.05459, 44.77674]]]}}, {"type": "Feature", "properties": {"hc-key": "ro-dj", "name": "Dolj"}, "geometry": {"type": "Polygon", "coordinates": [[[24.14997, 43.7547], [23.80021, 43.81855], [23.72047, 43.84554], [23.63619, 43.83212], [23.59295, 43.83754], [23.48436, 43.88055], [23.32478, 43.88649], [23.23436, 43.87745], [23.13183, 43.84782], [22.91974, 43.83434], [22.86357, 43.85547], [22.85057, 43.89704], [22.88597, 43.99459], [23.02275, 44.03174], [23.04014, 44.0622], [23.00797, 44.10068], [23.09101, 44.16205], [23.13952, 44.17101], [23.13188, 44.23595], [23.18197, 44.35218], [23.23491, 44.37405], [23.27399, 44.37411], [23.2172, 44.39844], [23.21888, 44.4515], [23.26212, 44.46694], [23.30961, 44.50992], [23.30451, 44.52316], [23.36733, 44.5264], [23.48939, 44.55032], [23.58123, 44.59698], [23.73631, 44.62955], [23.73582, 44.72946], [23.77551, 44.72266], [23.79608, 44.67511], [23.88117, 44.63299], [23.90172, 44.58359], [23.95824, 44.52967], [23.90542, 44.46549], [23.95896, 44.43403], [24.0036, 44.39256], [24.03803, 44.38371], [24.12153, 44.30968], [24.15935, 44.26432], [24.25047, 44.21964], [24.25524, 44.13506], [24.27594, 44.10814], [24.21642, 44.09695], [24.20529, 44.04611], [24.28687, 44.017], [24.28848, 43.9817], [24.26038, 43.96884], [24.27191, 43.91976], [24.25967, 43.89265], [24.20404, 43.8389], [24.14997, 43.7547]]]}}, {"type": "Feature", "properties": {"hc-key": "ro-gj", "name": "Gorj"}, "geometry": {"type": "Polygon", "coordinates": [[[23.77551, 44.72266], [23.73582, 44.72946], [23.73631, 44.62955], [23.58123, 44.59698], [23.48939, 44.55032], [23.4634, 44.58547], [23.40643, 44.62451], [23.31859, 44.66436], [23.14552, 44.69946], [23.1033, 44.71752], [23.02628, 44.76909], [22.93737, 44.8415], [22.91225, 44.93016], [22.91778, 44.97301], [22.84556, 45.02219], [22.80427, 45.03469], [22.72314, 45.03959], [22.68061, 45.07942], [22.64091, 45.09253], [22.63479, 45.12763], [22.56592, 45.13898], [22.57291, 45.17093], [22.66926, 45.24043], [22.88174, 45.29522], [22.93311, 45.27696], [23.02666, 45.25954], [23.09085, 45.27943], [23.18974, 45.27181], [23.24429, 45.29494], [23.35738, 45.32176], [23.43017, 45.30396], [23.5861, 45.35259], [23.72807, 45.33299], [23.78912, 45.33777], [23.83577, 45.30679], [23.8209, 45.2485], [23.84318, 45.1888], [23.82152, 45.12911], [23.82501, 45.08168], [23.77919, 44.94819], [23.7933, 44.83344], [23.77551, 44.72266]]]}}, {"type": "Feature", "properties": {"hc-key": "ro-mh", "name": "Mehedinti"}, "geometry": {"type": "Polygon", "coordinates": [[[23.48939, 44.55032], [23.36733, 44.5264], [23.30451, 44.52316], [23.30961, 44.50992], [23.26212, 44.46694], [23.21888, 44.4515], [23.2172, 44.39844], [23.27399, 44.37411], [23.23491, 44.37405], [23.18197, 44.35218], [23.13188, 44.23595], [23.13952, 44.17101], [23.09101, 44.16205], [23.00797, 44.10068], [22.90668, 44.12268], [22.69088, 44.22867], [22.68189, 44.3051], [22.58259, 44.3281], [22.54962, 44.34875], [22.50546, 44.40429], [22.50087, 44.44188], [22.47704, 44.46409], [22.48449, 44.49973], [22.5569, 44.52146], [22.5654, 44.5553], [22.62146, 44.56904], [22.70019, 44.54158], [22.74205, 44.55168], [22.76534, 44.58301], [22.70044, 44.63054], [22.62144, 44.63728], [22.55328, 44.66937], [22.48414, 44.72392], [22.42611, 44.73379], [22.38091, 44.70029], [22.31974, 44.6856], [22.18529, 44.51489], [22.14812, 44.50113], [22.10399, 44.5096], [22.03447, 44.59615], [22.15032, 44.59749], [22.16896, 44.60925], [22.16548, 44.70232], [22.20587, 44.76129], [22.22181, 44.80644], [22.26275, 44.80815], [22.31142, 44.77787], [22.3542, 44.77779], [22.38778, 44.75357], [22.44213, 44.76916], [22.49214, 44.88447], [22.5337, 44.93424], [22.56624, 45.02385], [22.64091, 45.09253], [22.68061, 45.07942], [22.72314, 45.03959], [22.80427, 45.03469], [22.84556, 45.02219], [22.91778, 44.97301], [22.91225, 44.93016], [22.93737, 44.8415], [23.02628, 44.76909], [23.1033, 44.71752], [23.14552, 44.69946], [23.31859, 44.66436], [23.40643, 44.62451], [23.4634, 44.58547], [23.48939, 44.55032]]]}}, {"type": "Feature", "properties": {"hc-key": "ro-ot", "name": "Olt"}, "geometry": {"type": "Polygon", "coordinates": [[[24.66188, 43.75596], [24.50034, 43.79946], [24.43157, 43.79428], [24.3582, 43.76031], [24.14997, 43.7547], [24.20404, 43.8389], [24.25967, 43.89265], [24.27191, 43.91976], [24.26038, 43.96884], [24.28848, 43.9817], [24.28687, 44.017], [24.20529, 44.04611], [24.21642, 44.09695], [24.27594, 44.10814], [24.25524, 44.13506], [24.25047, 44.21964], [24.15935, 44.26432], [24.12153, 44.30968], [24.03803, 44.38371], [24.0036, 44.39256], [23.95896, 44.43403], [23.90542, 44.46549], [23.95824, 44.52967], [24.02019, 44.5508], [24.07554, 44.5175], [24.1498, 44.5663], [24.21637, 44.56428], [24.29314, 44.61792], [24.31822, 44.57342], [24.33313, 44.58291], [24.28633, 44.7457], [24.33593, 44.8011], [24.35377, 44.86], [24.4079, 44.91364], [24.43952, 44.89668], [24.43818, 44.84974], [24.47363, 44.82251], [24.56403, 44.89149], [24.5693, 44.84774], [24.62138, 44.76841], [24.65318, 44.74348], [24.71737, 44.74173], [24.69268, 44.69615], [24.72519, 44.65111], [24.75061, 44.5456], [24.74351, 44.5089], [24.76576, 44.41673], [24.85176, 44.38974], [24.83742, 44.34072], [24.84839, 44.24953], [24.83435, 44.19321], [24.84141, 44.11596], [24.77546, 44.09276], [24.73431, 44.06331], [24.6573, 44.0447], [24.63156, 43.99115], [24.69825, 43.88162], [24.74064, 43.83006], [24.74487, 43.80699], [24.66188, 43.75596]]]}}, {"type": "Feature", "properties": {"hc-key": "ro-tr", "name": "Teleorman"}, "geometry": {"type": "Polygon", "coordinates": [[[25.73288, 43.71863], [25.67157, 43.71732], [25.6168, 43.68803], [25.55676, 43.67022], [25.46783, 43.66785], [25.40283, 43.6499], [25.35991, 43.65416], [25.25271, 43.70437], [25.08174, 43.71869], [24.96391, 43.74956], [24.75247, 43.73889], [24.66188, 43.75596], [24.74487, 43.80699], [24.74064, 43.83006], [24.69825, 43.88162], [24.63156, 43.99115], [24.6573, 44.0447], [24.73431, 44.06331], [24.77546, 44.09276], [24.84141, 44.11596], [24.83435, 44.19321], [24.84839, 44.24953], [24.83742, 44.34072], [24.85176, 44.38974], [24.89395, 44.39784], [24.98088, 44.39088], [25.02165, 44.41657], [25.10136, 44.4228], [25.1448, 44.44728], [25.18968, 44.45348], [25.27863, 44.43719], [25.34803, 44.44918], [25.39352, 44.49613], [25.39606, 44.52785], [25.51331, 44.50568], [25.53697, 44.47856], [25.49372, 44.40671], [25.55002, 44.32945], [25.653, 44.31792], [25.7098, 44.28201], [25.71886, 44.25531], [25.71924, 44.15965], [25.68138, 44.14947], [25.64249, 44.07406], [25.64868, 43.98761], [25.67462, 43.88371], [25.71556, 43.82142], [25.73288, 43.71863]]]}}, {"type": "Feature", "properties": {"hc-key": "ro-cl", "name": "Calarasi"}, "geometry": {"type": "Polygon", "coordinates": [[[27.25281, 44.12145], [27.10059, 44.14424], [27.02783, 44.17718], [27.00158, 44.165], [26.88393, 44.15641], [26.78928, 44.11606], [26.70897, 44.10796], [26.6144, 44.08513], [26.41595, 44.06357], [26.42489, 44.10079], [26.45337, 44.13018], [26.45963, 44.18505], [26.41502, 44.24393], [26.32642, 44.28244], [26.28015, 44.32115], [26.29086, 44.34803], [26.34206, 44.40135], [26.43855, 44.44269], [26.46044, 44.46777], [26.41166, 44.49556], [26.43437, 44.52309], [26.51333, 44.55331], [26.61662, 44.52568], [26.7161, 44.5607], [26.78355, 44.52612], [26.83976, 44.52865], [26.89941, 44.51104], [26.99989, 44.51414], [27.07309, 44.49218], [27.18546, 44.49571], [27.36337, 44.49345], [27.46562, 44.50648], [27.60506, 44.48755], [27.70266, 44.46445], [27.78032, 44.41764], [27.87172, 44.39017], [28.02236, 44.3548], [27.99349, 44.30448], [27.93433, 44.26598], [27.78898, 44.23966], [27.73267, 44.20957], [27.60809, 44.20542], [27.51632, 44.17297], [27.44492, 44.13427], [27.29271, 44.15183], [27.25281, 44.12145]]]}}, {"type": "Feature", "properties": {"hc-key": "ro-db", "name": "D\u00e2mbovita"}, "geometry": {"type": "Polygon", "coordinates": [[[25.51331, 44.50568], [25.39606, 44.52785], [25.39352, 44.49613], [25.34803, 44.44918], [25.27863, 44.43719], [25.30279, 44.48385], [25.29231, 44.52208], [25.31299, 44.57296], [25.25452, 44.58975], [25.19112, 44.65457], [25.21905, 44.69035], [25.18493, 44.71601], [25.2078, 44.7779], [25.21554, 44.85967], [25.19682, 44.96538], [25.23589, 45.00681], [25.21915, 45.04798], [25.17397, 45.09052], [25.16909, 45.16233], [25.19479, 45.19381], [25.24465, 45.16961], [25.27067, 45.19194], [25.29423, 45.26845], [25.33413, 45.34946], [25.30964, 45.38869], [25.36985, 45.39932], [25.42977, 45.45255], [25.46615, 45.32389], [25.49592, 45.30845], [25.52726, 45.26499], [25.52575, 45.22355], [25.57258, 45.17784], [25.62694, 45.10235], [25.68152, 45.04816], [25.69508, 44.98069], [25.74397, 44.94347], [25.78246, 44.94876], [25.8139, 44.92167], [25.81716, 44.84677], [25.8363, 44.83173], [25.91623, 44.81546], [25.9849, 44.75578], [26.02881, 44.73788], [25.99168, 44.71014], [25.95423, 44.65436], [25.98768, 44.64552], [25.9779, 44.61923], [25.90723, 44.56618], [25.59902, 44.55307], [25.55163, 44.53968], [25.51331, 44.50568]]]}}, {"type": "Feature", "properties": {"hc-key": "ro-gr", "name": "Giurgiu"}, "geometry": {"type": "Polygon", "coordinates": [[[26.28015, 44.32115], [26.32642, 44.28244], [26.41502, 44.24393], [26.45963, 44.18505], [26.45337, 44.13018], [26.42489, 44.10079], [26.41595, 44.06357], [26.31045, 44.05263], [26.23135, 44.02775], [26.15049, 44.01255], [26.07939, 43.96934], [26.05463, 43.93441], [25.93435, 43.87059], [25.86912, 43.8011], [25.80591, 43.7639], [25.78134, 43.73195], [25.73288, 43.71863], [25.71556, 43.82142], [25.67462, 43.88371], [25.64868, 43.98761], [25.64249, 44.07406], [25.68138, 44.14947], [25.71924, 44.15965], [25.71886, 44.25531], [25.7098, 44.28201], [25.653, 44.31792], [25.55002, 44.32945], [25.49372, 44.40671], [25.53697, 44.47856], [25.51331, 44.50568], [25.55163, 44.53968], [25.59902, 44.55307], [25.90723, 44.56618], [25.93181, 44.52742], [25.89757, 44.44606], [25.88907, 44.40089], [25.90496, 44.36936], [25.98974, 44.32931], [26.02292, 44.32473], [26.13162, 44.26345], [26.18846, 44.26144], [26.28015, 44.32115]]]}}, {"type": "Feature", "properties": {"hc-key": "ro-il", "name": "Ialomita"}, "geometry": {"type": "Polygon", "coordinates": [[[28.02236, 44.3548], [27.87172, 44.39017], [27.78032, 44.41764], [27.70266, 44.46445], [27.60506, 44.48755], [27.46562, 44.50648], [27.36337, 44.49345], [27.18546, 44.49571], [27.07309, 44.49218], [26.99989, 44.51414], [26.89941, 44.51104], [26.83976, 44.52865], [26.78355, 44.52612], [26.7161, 44.5607], [26.61662, 44.52568], [26.51333, 44.55331], [26.43437, 44.52309], [26.36749, 44.56478], [26.3918, 44.60391], [26.43169, 44.62361], [26.43057, 44.65102], [26.35936, 44.68477], [26.34417, 44.74378], [26.26959, 44.75978], [26.35385, 44.79562], [26.42239, 44.78685], [26.45299, 44.80833], [26.52061, 44.80741], [26.56583, 44.82648], [26.60409, 44.865], [26.65995, 44.83594], [26.76784, 44.83499], [26.85008, 44.82172], [26.89972, 44.82665], [27.00074, 44.80233], [27.0367, 44.82182], [27.10515, 44.80654], [27.12474, 44.76022], [27.20348, 44.78082], [27.17446, 44.80097], [27.20105, 44.81921], [27.28311, 44.79527], [27.35934, 44.80663], [27.4123, 44.79244], [27.68603, 44.78686], [27.78731, 44.81058], [27.85494, 44.81131], [27.91086, 44.77554], [27.87703, 44.74412], [27.91642, 44.69446], [27.97767, 44.67933], [28.03487, 44.6307], [28.02018, 44.52237], [28.08628, 44.5047], [28.10923, 44.45757], [28.09851, 44.43025], [28.04862, 44.39843], [28.02236, 44.3548]]]}}, {"type": "Feature", "properties": {"hc-key": "ro-ct", "name": "Constanta"}, "geometry": {"type": "Polygon", "coordinates": [[[28.78553, 44.67992], [28.79212, 44.64447], [28.86948, 44.66151], [28.9116, 44.69615], [28.89774, 44.71649], [28.9673, 44.7013], [28.98776, 44.67536], [28.92394, 44.68193], [28.8541, 44.63435], [28.77458, 44.60088], [28.79436, 44.63408], [28.75365, 44.614], [28.78779, 44.58666], [28.73267, 44.56801], [28.77395, 44.55215], [28.74556, 44.48617], [28.75855, 44.46526], [28.77856, 44.5076], [28.8554, 44.56791], [28.90963, 44.58408], [28.84368, 44.49377], [28.79692, 44.46771], [28.70676, 44.38135], [28.69301, 44.34621], [28.64072, 44.3287], [28.6313, 44.26425], [28.66507, 44.19917], [28.66525, 44.1754], [28.63081, 44.15457], [28.67141, 44.00348], [28.63784, 43.91866], [28.60967, 43.87458], [28.58413, 43.80059], [28.57837, 43.74156], [28.43448, 43.73493], [28.22157, 43.76178], [28.01505, 43.83022], [27.98085, 43.84941], [27.9355, 43.96435], [27.91231, 43.99318], [27.85654, 43.98873], [27.78696, 43.96059], [27.72186, 43.94884], [27.65606, 44.02357], [27.57491, 44.01609], [27.38408, 44.01506], [27.34208, 44.05298], [27.28556, 44.07263], [27.25281, 44.12145], [27.29271, 44.15183], [27.44492, 44.13427], [27.51632, 44.17297], [27.60809, 44.20542], [27.73267, 44.20957], [27.78898, 44.23966], [27.93433, 44.26598], [27.99349, 44.30448], [28.02236, 44.3548], [28.04862, 44.39843], [28.09851, 44.43025], [28.10923, 44.45757], [28.08628, 44.5047], [28.02018, 44.52237], [28.03487, 44.6307], [27.97767, 44.67933], [27.91642, 44.69446], [27.87703, 44.74412], [27.91086, 44.77554], [27.99529, 44.76082], [28.05459, 44.77674], [28.14537, 44.78257], [28.19555, 44.76804], [28.28237, 44.71044], [28.32526, 44.71787], [28.34676, 44.76087], [28.40406, 44.76079], [28.45513, 44.71751], [28.5272, 44.69585], [28.60579, 44.69599], [28.67112, 44.71028], [28.78553, 44.67992]]]}}, {"type": "Feature", "properties": {"hc-key": "ro-ar", "name": "Arad"}, "geometry": {"type": "Polygon", "coordinates": [[[20.70455, 46.16867], [20.74481, 46.20014], [20.73966, 46.23763], [20.7784, 46.25986], [20.83951, 46.2711], [20.9615, 46.24839], [20.99891, 46.25158], [21.03359, 46.23147], [21.099, 46.27631], [21.13476, 46.27876], [21.16484, 46.31808], [21.16887, 46.36276], [21.1959, 46.39826], [21.28028, 46.41654], [21.24484, 46.4769], [21.29129, 46.54686], [21.31668, 46.61637], [21.3961, 46.62639], [21.42377, 46.65821], [21.49236, 46.64509], [21.82548, 46.65825], [21.9783, 46.61329], [22.06696, 46.61046], [22.14546, 46.58276], [22.20978, 46.4947], [22.31798, 46.4468], [22.39283, 46.4267], [22.42057, 46.39005], [22.61769, 46.36916], [22.7066, 46.36888], [22.7551, 46.33353], [22.69002, 46.30003], [22.64008, 46.23173], [22.6005, 46.21071], [22.50242, 46.21907], [22.47055, 46.21172], [22.43401, 46.17615], [22.42949, 46.11444], [22.40766, 46.07153], [22.41938, 46.02509], [22.40119, 45.99146], [22.35484, 45.94998], [22.32228, 45.92185], [22.22874, 45.89299], [22.13169, 45.90534], [22.05853, 45.95276], [22.00121, 45.95879], [21.95539, 45.98236], [21.91215, 45.97739], [21.88893, 45.93553], [21.82211, 45.94043], [21.82006, 45.90622], [21.7365, 45.94992], [21.67039, 45.90176], [21.63375, 45.92867], [21.63964, 45.94906], [21.5839, 45.99211], [21.53552, 45.99529], [21.49209, 46.03645], [21.43109, 46.03409], [21.41755, 46.00358], [21.36819, 45.97312], [21.33087, 45.98772], [21.26469, 45.96857], [21.20702, 45.99368], [21.19565, 46.01869], [21.15461, 46.00989], [21.14235, 45.97697], [21.09658, 45.98008], [21.08372, 46.01049], [20.91989, 46.0372], [20.86091, 46.09557], [20.70455, 46.16867]]]}}, {"type": "Feature", "properties": {"hc-key": "ro-bh", "name": "Bihor"}, "geometry": {"type": "Polygon", "coordinates": [[[22.7066, 46.36888], [22.61769, 46.36916], [22.42057, 46.39005], [22.39283, 46.4267], [22.31798, 46.4468], [22.20978, 46.4947], [22.14546, 46.58276], [22.06696, 46.61046], [21.9783, 46.61329], [21.82548, 46.65825], [21.49236, 46.64509], [21.42377, 46.65821], [21.48387, 46.68489], [21.50478, 46.72306], [21.47087, 46.74275], [21.5026, 46.8052], [21.59196, 46.86065], [21.59409, 46.9101], [21.64858, 46.94312], [21.66771, 46.99215], [21.63258, 47.02279], [21.69392, 47.06891], [21.77065, 47.11388], [21.77964, 47.14048], [21.82617, 47.18525], [21.82328, 47.21497], [21.86181, 47.29712], [21.93666, 47.35711], [21.98149, 47.3664], [22.00129, 47.39407], [21.9892, 47.49284], [22.03783, 47.53943], [22.16766, 47.59494], [22.22482, 47.53094], [22.26627, 47.51012], [22.36039, 47.40128], [22.42871, 47.39977], [22.47248, 47.41248], [22.55451, 47.3761], [22.58059, 47.32168], [22.53707, 47.23227], [22.4947, 47.19406], [22.50743, 47.15984], [22.59085, 47.05831], [22.66391, 47.02578], [22.71932, 46.97913], [22.68847, 46.9201], [22.76595, 46.88462], [22.72993, 46.82359], [22.66763, 46.79261], [22.669, 46.7756], [22.72071, 46.73857], [22.76434, 46.65674], [22.80793, 46.61936], [22.80302, 46.55704], [22.73965, 46.56566], [22.70257, 46.53199], [22.68701, 46.48328], [22.68834, 46.4218], [22.7066, 46.36888]]]}}]}